NORAD_CAT_ID,OBJECT_NAME,OBJECT_TYPE,EPOCH,MEAN_MOTION,ECCENTRICITY,INCLINATION,RA_OF_ASC_NODE,ARG_OF_PERICENTER,MEAN_ANOMALY,BSTAR,MEAN_MOTION_DOT,MEAN_MOTION_DDOT,TLE_LINE0,TLE_LINE1,TLE_LINE2,SEMIMAJOR_AXIS,PERIOD,APOGEE,PERIGEE,DECAYED
55656.0,STARLINK-5326,PAYLOAD,2023-02-22 16:00:00,15.94722487,0.0037373,69.9999,136.7816,163.2229,238.5072,-0.0026531,-0.01088626,0.00036348,0 STARLINK-5326,1 55656U 23021AE  23053.66667824 -.01088626  36348-3 -26531-2 0  9992,2 55656  69.9999 136.7816 0037373 163.2229 238.5072 15.94722487  1300,6667.225,90.298,314.007,264.172,0.0
55656.0,STARLINK-5326,PAYLOAD,2023-02-22 22:00:00,15.94224309,0.0033996,69.9995,136.0524,163.3388,232.9373,-0.0029017,-0.01144159,0.00039639,0 STARLINK-5326,1 55656U 23021AE  23053.91667824 -.01144159  39639-3 -29017-2 0  9992,2 55656  69.9995 136.0524 0033996 163.3388 232.9373 15.94224309  1301,6668.614,90.326,313.149,267.808,0.0
55656.0,STARLINK-5326,PAYLOAD,2023-02-23 08:00:01,15.93320749,0.0029397,69.9998,134.8392,165.2696,100.8896,-0.003001,-0.0111125,0.00037216,0 STARLINK-5326,1 55656U 23021AE  23054.33334491 -.01111250  37216-3 -30010-2 0  9990,2 55656  69.9998 134.8392 0029397 165.2696 100.8896 15.93320749  1404,6671.135,90.377,312.611,273.388,0.0
55656.0,STARLINK-5326,PAYLOAD,2023-02-23 14:00:01,15.92792248,0.0027094,69.9999,134.1115,166.2132,93.2338,-0.0031119,-0.01113324,0.00037145,0 STARLINK-5326,1 55656U 23021AE  23054.58334491 -.01113324  37145-3 -31119-2 0  9993,2 55656  69.9999 134.1115 0027094 166.2132  93.2338 15.92792248  1300,6672.61,90.407,312.554,276.396,0.0
55656.0,STARLINK-5326,PAYLOAD,2023-02-23 16:00:00,15.92608711,0.0026208,69.9999,133.8695,166.9885,210.1186,-0.0031166,-0.01101841,0.00036373,0 STARLINK-5326,1 55656U 23021AE  23054.66667824 -.01101841  36373-3 -31166-2 0  9996,2 55656  69.9999 133.8695 0026208 166.9885 210.1186 15.92608711  1455,6673.123,90.418,312.477,277.499,0.0
55656.0,STARLINK-5326,PAYLOAD,2023-02-23 22:00:00,15.92099014,0.0023254,69.9996,133.1427,168.4849,201.2671,-0.003334,-0.01139282,0.00038491,0 STARLINK-5326,1 55656U 23021AE  23054.91667824 -.01139282  38491-3 -33340-2 0  9993,2 55656  69.9996 133.1427 0023254 168.4849 201.2671 15.92099014  1307,6674.547,90.447,311.933,280.891,0.0
55656.0,STARLINK-5326,PAYLOAD,2023-02-24 02:00:01,15.91715267,0.0022126,69.9999,132.6587,169.7495,74.8519,-0.0032387,-0.01082662,0.00034899,0 STARLINK-5326,1 55656U 23021AE  23055.08334491 -.01082662  34899-3 -32387-2 0  9990,2 55656  69.9999 132.6587 0022126 169.7495  74.8519 15.91715267  1522,6675.62,90.468,312.255,282.714,0.0
55656.0,STARLINK-5326,PAYLOAD,2023-02-24 08:00:01,15.91190556,0.0019326,70.0,131.9333,172.6713,63.7861,-0.0033743,-0.01091777,0.0003526,0 STARLINK-5326,1 55656U 23021AE  23055.33334491 -.01091777  35260-3 -33743-2 0  9995,2 55656  70.0000 131.9333 0019326 172.6713  63.7861 15.91190556  1562,6677.087,90.498,311.856,286.048,0.0
55656.0,STARLINK-5326,PAYLOAD,2023-02-24 14:00:01,15.90669873,0.0017215,69.9999,131.2082,175.2167,52.6178,-0.003524,-0.01106094,0.00035934,0 STARLINK-5326,1 55656U 23021AE  23055.58334491 -.01106094  35934-3 -35240-2 0  9993,2 55656  69.9999 131.2082 0017215 175.2167  52.6178 15.90669873  1309,6678.544,90.528,311.906,288.912,0.0
55656.0,STARLINK-5326,PAYLOAD,2023-02-24 18:00:00,15.9029734,0.0015858,69.9997,130.7256,178.0524,283.7803,-0.0034881,-0.01072304,0.00033808,0 STARLINK-5326,1 55656U 23021AE  23055.75001157 -.01072304  33808-3 -34881-2 0  9996,2 55656  69.9997 130.7256 0015858 178.0524 283.7803 15.90297340  1637,6679.587,90.549,312.045,290.86,0.0
55656.0,STARLINK-5326,PAYLOAD,2023-02-24 22:00:00,15.89989138,0.0013885,69.9997,130.2423,182.718,152.8747,-0.0038389,-0.01158015,0.00038852,0 STARLINK-5326,1 55656U 23021AE  23055.91667824 -.01158015  38852-3 -38389-2 0  9998,2 55656  69.9997 130.2423 0013885 182.7180 152.8747 15.89989138  1304,6680.45,90.567,311.591,293.039,0.0
55656.0,STARLINK-5326,PAYLOAD,2023-02-25 02:00:01,15.89589247,0.0012809,70.0001,129.7599,186.4835,22.6935,-0.0036208,-0.0106972,0.00033426,0 STARLINK-5326,1 55656U 23021AE  23056.08334491 -.01069720  33426-3 -36208-2 0  9992,2 55656  70.0001 129.7599 0012809 186.4835  22.6935 15.89589247  1684,6681.571,90.589,311.994,294.877,0.0
55656.0,STARLINK-5326,PAYLOAD,2023-02-25 08:00:01,15.89060968,0.0010755,70.0001,129.0367,195.9451,3.1831,-0.0037387,-0.01073317,0.00033462,0 STARLINK-5326,1 55656U 23021AE  23056.33334491 -.01073317  33462-3 -37387-2 0  9996,2 55656  70.0001 129.0367 0010755 195.9451   3.1831 15.89060968  1725,6683.051,90.62,312.104,297.729,0.0
55656.0,STARLINK-5326,PAYLOAD,2023-02-25 14:00:01,15.88541539,0.0009525,69.9997,128.314,206.1511,342.4463,-0.0038975,-0.01088986,0.000342,0 STARLINK-5326,1 55656U 23021AE  23056.58334491 -.01088986  34200-3 -38975-2 0  9996,2 55656  69.9997 128.3140 0009525 206.1511 342.4463 15.88541539  1763,6684.508,90.649,312.74,300.006,0.0
55656.0,STARLINK-5326,PAYLOAD,2023-02-25 22:00:00,15.87870724,0.0008341,69.9995,127.3505,226.4523,67.3569,-0.0042961,-0.01039585,0.0,0 STARLINK-5326,1 55656U 23021AE  23056.91667824 -.01039585  00000-0 -42961-2 0  9991,2 55656  69.9995 127.3505 0008341 226.4523  67.3569 15.87870724  1814,6686.391,90.687,313.833,302.679,0.0
55656.0,STARLINK-5326,PAYLOAD,2023-02-26 06:00:00,15.87158675,0.0008688,69.9994,126.3892,247.7061,150.4824,-0.004405,-0.01030313,0.0,0 STARLINK-5326,1 55656U 23021AE  23057.25001157 -.01030313  00000-0 -44050-2 0  9991,2 55656  69.9994 126.3892 0008688 247.7061 150.4824 15.87158675  1876,6688.39,90.728,316.066,304.444,0.0
55656.0,STARLINK-5326,PAYLOAD,2023-02-26 14:00:01,15.8640945,0.0009186,69.9999,125.4286,262.4574,239.2793,-0.0042605,-0.00967708,0.0,0 STARLINK-5326,1 55656U 23021AE  23057.58334491 -.00967708  00000-0 -42605-2 0  9997,2 55656  69.9999 125.4286 0009186 262.4574 239.2793 15.86409450  1303,6690.496,90.771,318.507,306.215,0.0
55656.0,STARLINK-5326,PAYLOAD,2023-02-26 22:00:00,15.85707038,0.0007901,69.9995,124.4686,269.5958,334.822,-0.0044443,-0.0097333,0.0,0 STARLINK-5326,1 55656U 23021AE  23057.91667824 -.00973330  00000-0 -44443-2 0  9993,2 55656  69.9995 124.4686 0007901 269.5958 334.8220 15.85707038  1971,6692.472,90.811,319.624,309.049,0.0
55656.0,STARLINK-5326,PAYLOAD,2023-02-27 14:00:01,15.84319352,0.0005537,69.9999,122.5521,267.5306,179.6993,-0.0049655,-0.01010249,0.0,0 STARLINK-5326,1 55656U 23021AE  23058.58334491 -.01010249  00000-0 -49655-2 0  9990,2 55656  69.9999 122.5521 0005537 267.5306 179.6993 15.84319352  1306,6696.379,90.891,321.952,314.536,0.0
55656.0,STARLINK-5326,PAYLOAD,2023-02-27 20:00:01,15.83693695,0.000374,69.9998,121.8344,263.1739,169.2826,-0.004362,-0.00873833,0.0,0 STARLINK-5326,1 55656U 23021AE  23058.83334491 -.00873833  00000-0 -43620-2 0  9999,2 55656  69.9998 121.8344 0003740 263.1739 169.2826 15.83693695  2121,6698.143,90.927,322.513,317.502,0.0
55656.0,STARLINK-5326,PAYLOAD,2023-02-28 06:00:00,15.82911122,0.0003499,69.9997,120.6396,273.6209,13.0389,-0.0053381,-0.01013546,0.0,0 STARLINK-5326,1 55656U 23021AE  23059.25001157 -.01013546  00000-0 -53381-2 0  9999,2 55656  69.9997 120.6396 0003499 273.6209  13.0389 15.82911122  2186,6700.35,90.972,324.559,319.871,0.0
55656.0,STARLINK-5326,PAYLOAD,2023-02-28 14:00:01,15.82186432,0.0003691,69.9998,119.6846,271.304,113.8092,-0.0053698,-0.00988385,0.0,0 STARLINK-5326,1 55656U 23021AE  23059.58334491 -.00988385  00000-0 -53698-2 0  9997,2 55656  69.9998 119.6846 0003691 271.3040 113.8092 15.82186432  1308,6702.396,91.013,326.735,321.787,0.0
55656.0,STARLINK-5326,PAYLOAD,2023-02-28 22:00:00,15.81496104,0.0003674,70.0001,118.731,278.9479,203.7556,-0.0056848,-0.01010426,0.0,0 STARLINK-5326,1 55656U 23021AE  23059.91667824 -.01010426  00000-0 -56848-2 0  9996,2 55656  70.0001 118.7310 0003674 278.9479 203.7556 15.81496104  1305,6704.346,91.053,328.674,323.748,0.0
55656.0,STARLINK-5326,PAYLOAD,2023-03-01 14:00:01,15.80074106,0.0003555,69.9998,116.8264,272.2995,43.0609,-0.0059853,-0.00997486,0.0,0 STARLINK-5326,1 55656U 23021AE  23060.58334491 -.00997486  00000-0 -59853-2 0  9990,2 55656  69.9998 116.8264 0003555 272.2995  43.0609 15.80074106  2399,6708.368,91.135,332.618,327.848,0.0
55656.0,STARLINK-5326,PAYLOAD,2023-03-01 22:00:00,15.79376027,0.0003748,69.9996,115.8751,279.5596,130.8524,-0.0062576,-0.01008781,0.0,0 STARLINK-5326,1 55656U 23021AE  23060.91667824 -.01008781  00000-0 -62576-2 0  9994,2 55656  69.9996 115.8751 0003748 279.5596 130.8524 15.79376027  1304,6710.344,91.175,334.724,329.694,0.0
55656.0,STARLINK-5326,PAYLOAD,2023-03-02 20:00:01,15.77409318,0.0003441,69.9998,113.2657,271.423,306.033,-0.0066098,-0.00978266,0.0,0 STARLINK-5326,1 55656U 23021AE  23061.83334491 -.00978266  00000-0 -66098-2 0  9993,2 55656  69.9998 113.2657 0003441 271.4230 306.0330 15.77409318  1309,6715.921,91.289,340.097,335.475,0.0
55656.0,STARLINK-5326,PAYLOAD,2023-03-03 12:00:00,15.75993595,0.0003668,70.0003,111.3726,279.6968,120.6669,-0.0069971,-0.00973109,0.0,0 STARLINK-5326,1 55656U 23021AE  23062.50001157 -.00973109  00000-0 -69971-2 0  9992,2 55656  70.0003 111.3726 0003668 279.6968 120.6669 15.75993595  2707,6719.942,91.371,344.272,339.342,0.0
55656.0,STARLINK-5326,PAYLOAD,2023-03-03 14:00:01,15.75830623,0.0003475,69.9998,111.1361,274.8285,238.1534,-0.0071877,-0.00990259,0.0,0 STARLINK-5326,1 55656U 23021AE  23062.58334491 -.00990259  00000-0 -71877-2 0  9993,2 55656  69.9998 111.1361 0003475 274.8285 238.1534 15.75830623  1308,6720.406,91.38,344.606,339.935,0.0
55656.0,STARLINK-5326,PAYLOAD,2023-03-03 22:00:00,15.75139338,0.0003619,69.9997,110.1905,280.2447,322.7014,-0.0075917,-0.01028974,0.0,0 STARLINK-5326,1 55656U 23021AE  23062.91667824 -.01028974  00000-0 -75917-2 0  9995,2 55656  69.9997 110.1905 0003619 280.2447 322.7014 15.75139338  1309,6722.372,91.42,346.67,341.804,0.0
